H1 CPF 01  gfz 2022 08 14 12  7261 terrasarx 
H2 0702601  6201 31698    2022 08 14 12 59 42 2022 08 19 00 00 42   120 1 1  0 0 0
H9
10 0 59808  69102.000000  0   -2196222.747   1565063.315  -6345621.018
10 0 59808  69222.000000  0   -1348106.798   1350947.680  -6625636.929
10 0 59808  69342.000000  0    -480720.902   1098421.114  -6790066.233
10 0 59808  69462.000000  0     390272.861    811664.106  -6836080.573
10 0 59808  69582.000000  0    1249237.575    495717.197  -6762888.122
10 0 59808  69702.000000  0    2080836.881    156394.102  -6571747.375
10 0 59808  69822.000000  0    2870302.682   -199822.422  -6265947.035
10 0 59808  69942.000000  0    3603693.585   -565900.203  -5850755.842
10 0 59808  70062.000000  0    4268138.679   -934391.777  -5333339.816
10 0 59808  70182.000000  0    4852065.028  -1297580.817  -4722650.929
10 0 59808  70302.000000  0    5345405.664  -1647639.625  -4029283.668
10 0 59808  70422.000000  0    5739781.935  -1976793.299  -3265301.081
10 0 59808  70542.000000  0    6028656.798  -2277487.963  -2444032.188
10 0 59808  70662.000000  0    6207454.533  -2542559.420  -1579843.004
10 0 59808  70782.000000  0    6273643.216  -2765397.637   -687885.437
10 0 59808  70902.000000  0    6226778.103  -2940103.284    216171.522
10 0 59808  71022.000000  0    6068503.506  -3061632.088   1116423.168
10 0 59808  71142.000000  0    5802513.377  -3125923.130   1997017.827
10 0 59808  71262.000000  0    5434468.002  -3130007.222   2842445.641
10 0 59808  71382.000000  0    4971872.148  -3072092.831   3637819.628
10 0 59808  71502.000000  0    4423916.711  -2951626.049   4369143.499
10 0 59808  71622.000000  0    3801290.736  -2769325.852   5023560.747
10 0 59808  71742.000000  0    3115964.682  -2527193.155   5589582.466
10 0 59808  71862.000000  0    2380952.073  -2228491.800   6057285.929
10 0 59808  71982.000000  0    1610056.652  -1877704.281   6418483.639
10 0 59808  72102.000000  0     817608.958  -1480463.025   6666860.849
10 0 59808  72222.000000  0      18197.337  -1043458.136   6798079.814
10 0 59808  72342.000000  0    -773600.850   -574323.279   6809850.220
10 0 59808  72462.000000  0   -1543483.843    -81502.223   6701966.018
10 0 59808  72582.000000  0   -2277682.610    425902.747   6476308.869
10 0 59808  72702.000000  0   -2963206.454    938298.184   6136817.746
10 0 59808  72822.000000  0   -3588073.806   1445779.713   5689424.948
10 0 59808  72942.000000  0   -4141525.077   1938322.621   5141959.019
10 0 59808  73062.000000  0   -4614214.068   2405980.032   4504014.350
10 0 59808  73182.000000  0   -4998372.894   2839084.804   3786787.181
10 0 59808  73302.000000  0   -5287946.236   3228450.118   3002881.787
10 0 59808  73422.000000  0   -5478693.405   3565564.922   2166090.067
10 0 59808  73542.000000  0   -5568255.614   3842780.715   1291147.005
10 0 59808  73662.000000  0   -5556185.253   4053483.168    393464.748
10 0 59808  73782.000000  0   -5443935.438   4192243.991   -511146.457
10 0 59808  73902.000000  0   -5234812.193   4254950.200  -1406765.175
10 0 59808  74022.000000  0   -4933888.911   4238907.379  -2277648.872
10 0 59808  74142.000000  0   -4547883.911   4142912.260  -3108519.122
10 0 59808  74262.000000  0   -4085006.674   3967294.439  -3884834.173
10 0 59808  74382.000000  0   -3554777.094   3713926.727  -4593043.743
10 0 59808  74502.000000  0   -2967823.119   3386205.101  -5220821.456
10 0 59808  74622.000000  0   -2335663.586   2988999.220  -5757271.242
10 0 59808  74742.000000  0   -1670479.449   2528575.784  -6193107.967
10 0 59808  74862.000000  0    -984877.179   2012494.449  -6520807.208
10 0 59808  74982.000000  0    -291651.528   1449480.984  -6734723.007
10 0 59808  75102.000000  0     396449.122    849279.422  -6831175.002
10 0 59808  75222.000000  0    1066950.983    222486.105  -6808505.551
10 0 59808  75342.000000  0    1707876.823   -419633.860  -6667105.827
10 0 59808  75462.000000  0    2307954.590  -1065344.319  -6409408.304
10 0 59808  75582.000000  0    2856811.710  -1702646.967  -6039849.862
10 0 59808  75702.000000  0    3345152.625  -2319498.596  -5564803.376
10 0 59808  75822.000000  0    3764918.194  -2904035.753  -4992480.283
10 0 59808  75942.000000  0    4109423.104  -3444803.386  -4332798.599
10 0 59808  76062.000000  0    4373466.221  -3930979.702  -3597220.646
10 0 59808  76182.000000  0    4553415.251  -4352595.164  -2798563.712
10 0 59808  76302.000000  0    4647262.587  -4700741.127  -1950782.476
10 0 59808  76422.000000  0    4654649.647  -4967762.679  -1068727.294
10 0 59808  76542.000000  0    4576857.579  -5147430.573   -167881.481
10 0 59808  76662.000000  0    4416764.387  -5235086.039    735916.109
10 0 59808  76782.000000  0    4178770.151  -5227755.863   1626757.400
10 0 59808  76902.000000  0    3868690.127  -5124232.810   2488954.843
10 0 59808  77022.000000  0    3493619.449  -4925120.743   3307325.279
10 0 59808  77142.000000  0    3061773.576  -4632843.259   4067464.533
10 0 59808  77262.000000  0    2582307.977  -4251614.635   4756005.336
10 0 59808  77382.000000  0    2065122.393  -3787374.986   5360854.041
10 0 59808  77502.000000  0    1520654.113  -3247691.869   5871401.897
10 0 59808  77622.000000  0     959664.573  -2641629.639   6278707.469
10 0 59808  77742.000000  0     393024.913  -1979591.565   6575646.874
10 0 59808  77862.000000  0    -168495.244  -1273137.494   6757031.475
10 0 59808  77982.000000  0    -714431.374   -534780.082   6819693.789
10 0 59808  78102.000000  0   -1234817.946    222238.071   6762539.349
10 0 59808  78222.000000  0   -1720369.721    984181.561   6586564.422
10 0 59808  78342.000000  0   -2162647.023   1737070.546   6294839.600
10 0 59808  78462.000000  0   -2554203.075   2466936.353   5892459.631
10 0 59808  78582.000000  0   -2888710.577   3160081.129   5386460.089
10 0 59808  78702.000000  0   -3161066.618   3803337.030   4785701.041
10 0 59808  78822.000000  0   -3367473.662   4384320.707   4100717.902
10 0 59808  78942.000000  0   -3505494.085   4891677.892   3343540.938
10 0 59808  79062.000000  0   -3574077.042   5315312.608   2527485.367
10 0 59808  79182.000000  0   -3573556.719   5646594.647   1666915.264
10 0 59808  79302.000000  0   -3505621.732   5878539.718    776986.882
10 0 59808  79422.000000  0   -3373257.341   6005960.729   -126623.751
10 0 59808  79542.000000  0   -3180660.412   6025583.841  -1028006.398
10 0 59808  79662.000000  0   -2933129.741   5936124.755  -1911307.302
10 0 59808  79782.000000  0   -2636932.365   5738322.835  -2761018.110
10 0 59808  79902.000000  0   -2299151.680   5434934.073  -3562252.111
10 0 59808  80022.000000  0   -1927523.522   5030686.081  -4301007.141
10 0 59808  80142.000000  0   -1530262.091   4532193.050  -4964408.231
10 0 59808  80262.000000  0   -1115881.935   3947837.285  -5540925.265
10 0 59808  80382.000000  0    -693018.575   3287619.769  -6020565.799
10 0 59808  80502.000000  0    -270251.215   2562980.958  -6395038.825
10 0 59808  80622.000000  0     144067.836   1786597.407  -6657885.837
10 0 59808  80742.000000  0     541973.265    972159.795  -6804581.786
10 0 59808  80862.000000  0     916035.785    134133.849  -6832605.183
10 0 59808  80982.000000  0    1259497.334   -712492.162  -6741476.459
10 0 59808  81102.000000  0    1566389.633  -1552469.538  -6532763.710
10 0 59808  81222.000000  0    1831635.444  -2370556.063  -6210058.440
10 0 59808  81342.000000  0    2051132.123  -3151786.067  -5778921.429
10 0 59808  81462.000000  0    2221815.479  -3881742.116  -5246798.287
10 0 59808  81582.000000  0    2341702.965  -4546822.759  -4622900.616
10 0 59808  81702.000000  0    2409914.706  -5134497.845  -3918056.629
10 0 59808  81822.000000  0    2426672.304  -5633550.735  -3144533.858
10 0 59808  81942.000000  0    2393275.092  -6034301.855  -2315833.014
10 0 59808  82062.000000  0    2312054.106  -6328807.605  -1446456.395
10 0 59808  82182.000000  0    2186303.292  -6511029.295   -551653.676
10 0 59808  82302.000000  0    2020191.151  -6576964.791    352851.321
10 0 59808  82422.000000  0    1818652.007  -6524740.161   1251143.035
10 0 59808  82542.000000  0    1587263.070  -6354661.308   2127403.135
10 0 59808  82662.000000  0    1332106.661  -6069218.390   2966199.464
10 0 59808  82782.000000  0    1059623.524  -5673046.804   3752764.782
10 0 59808  82902.000000  0     776460.706  -5172845.587   4473261.990
10 0 59808  83022.000000  0     489317.684  -4577256.396   5115029.911
10 0 59808  83142.000000  0     204793.866  -3896704.812   5666806.355
10 0 59808  83262.000000  0     -70757.107  -3143207.387   6118923.094
10 0 59808  83382.000000  0    -331364.254  -2330150.353   6463469.131
10 0 59808  83502.000000  0    -571564.704  -1472047.108   6694421.744
10 0 59808  83622.000000  0    -786515.008   -584277.181   6807746.568
10 0 59808  83742.000000  0    -972086.930    317190.816   6801464.778
10 0 59808  83862.000000  0   -1124946.051   1216086.680   6675685.416
10 0 59808  83982.000000  0   -1242611.224   2096131.632   6432603.309
10 0 59808  84102.000000  0   -1323494.748   2941332.560   6076463.311
10 0 59808  84222.000000  0   -1366923.072   3736273.479   5613490.682
10 0 59808  84342.000000  0   -1373136.662   4466399.267   5051787.958
10 0 59808  84462.000000  0   -1343269.714   5118287.765   4401199.910
10 0 59808  84582.000000  0   -1279310.006   5679904.604   3673145.266
10 0 59808  84702.000000  0   -1184039.127   6140833.494   2880419.418
10 0 59808  84822.000000  0   -1060956.795   6492480.531   2036970.609
10 0 59808  84942.000000  0    -914185.878   6728244.314   1157650.116
10 0 59808  85062.000000  0    -748363.249   6843646.321    257944.979
10 0 59808  85182.000000  0    -568519.149   6836420.816   -646301.824
10 0 59808  85302.000000  0    -379947.699   6706560.689  -1539180.561
10 0 59808  85422.000000  0    -188072.524   6456314.449  -2405004.811
10 0 59808  85542.000000  0       1688.353   6090137.814  -3228592.644
99
